ONEWEB-0640             
1 55804U 23029J   26119.00214613 -.00000081  00000+0 -25404-3 0  9992
2 55804  87.8914 299.5631 0002478  90.9707 269.1706 13.14503389152959
ONEWEB-0641             
1 55805U 23029K   26119.27697906  .00000054  00000+0  10237-3 0  9998
2 55805  87.9149 314.7180 0001795  82.8116 277.3221 13.19724211152468
ONEWEB-0642             
1 55806U 23029L   26119.27223094  .00000012  00000+0 -27071-5 0  9993
2 55806  87.9149 314.7331 0001933  62.4086 297.7243 13.19723701152453
ONEWEB-0643             
1 55807U 23029M   26119.20037139  .00000068  00000+0  15017-3 0  9995
2 55807  87.8916 299.5105 0001556  68.7248 291.4048 13.14503050152951
ONEWEB-0644             
1 55808U 23029N   26119.26749975  .00000029  00000+0  39375-4 0  9991
2 55808  87.9144 314.7364 0001780  76.4240 283.7091 13.19724671152456
ONEWEB-0645             
1 55809U 23029P   26119.28962022  .00000009  00000+0 -95451-5 0  9991
2 55809  87.9150 314.7284 0002161  79.9787 280.1590 13.19725275152459
ONEWEB-0646             
1 55810U 23029Q   26119.00371797  .00000039  00000+0  66009-4 0  9994
2 55810  87.9150 314.7854 0001750  78.6316 281.5014 13.19724255152409
ONEWEB-0648             
1 55811U 23029R   26119.24478045  .00000148  00000+0  36546-3 0  9998
2 55811  87.8924 299.4705 0002337  70.9349 289.2034 13.14502773152967
ONEWEB-0649             
1 55812U 23029S   26119.25644827  .00000113  00000+0  24944-3 0  9994
2 55812  87.9149 314.7325 0001984  81.4715 278.6643 13.19724841152479
ONEWEB-0650             
1 55813U 23029T   26119.25170815  .00000061  00000+0  11936-3 0  9995
2 55813  87.9148 314.7361 0001843  73.5848 286.5488 13.19724818152448
ONEWEB-0652             
1 55814U 23029U   26119.22574381 -.00000155  00000+0 -45248-3 0  9998
2 55814  87.8914 299.4848 0001701  97.1658 262.9666 13.14502414152933
ONEWEB-0653             
1 55815U 23029V   26119.20988573 -.00000139  00000+0 -40882-3 0  9990
2 55815  87.8925 299.4833 0001870  95.4894 264.6449 13.14502767152962
ONEWEB-0654             
1 55816U 23029W   26119.20512932 -.00000023  00000+0 -97580-4 0  9993
2 55816  87.8925 299.4805 0001752 103.1628 256.9697 13.14502660152986
ONEWEB-0656             
1 55817U 23029X   26119.18942864  .00000076  00000+0  15614-3 0  9995
2 55817  87.9144 284.2055 0001865 109.4303 250.7032 13.20773070154680
ONEWEB-0657             
1 55818U 23029Y   26119.24697105  .00000041  00000+0  70794-4 0  9991
2 55818  87.9149 314.7357 0001183 102.1855 257.9411 13.19725283152459
ONEWEB-0658             
1 55819U 23029Z   26119.24223253  .00000036  00000+0  58329-4 0  9995
2 55819  87.9159 314.7081 0001791  74.3825 285.7505 13.19724566152464
