[{"OBJECT_NAME":"ONEWEB-0640","OBJECT_ID":"2023-029J","EPOCH":"2026-04-29T00:03:05.425632","MEAN_MOTION":13.14503389,"ECCENTRICITY":0.0002478,"INCLINATION":87.8914,"RA_OF_ASC_NODE":299.5631,"ARG_OF_PERICENTER":90.9707,"MEAN_ANOMALY":269.1706,"EPHEMERIS_TYPE":0,"CLASSIFICATION_TYPE":"U","NORAD_CAT_ID":55804,"ELEMENT_SET_NO":999,"REV_AT_EPOCH":15295,"BSTAR":-0.00025404,"MEAN_MOTION_DOT":-8.1e-07,"MEAN_MOTION_DDOT":0.0},{"OBJECT_NAME":"ONEWEB-0641","OBJECT_ID":"2023-029K","EPOCH":"2026-04-29T06:38:50.990784","MEAN_MOTION":13.19724211,"ECCENTRICITY":0.0001795,"INCLINATION":87.9149,"RA_OF_ASC_NODE":314.718,"ARG_OF_PERICENTER":82.8116,"MEAN_ANOMALY":277.3221,"EPHEMERIS_TYPE":0,"CLASSIFICATION_TYPE":"U","NORAD_CAT_ID":55805,"ELEMENT_SET_NO":999,"REV_AT_EPOCH":15246,"BSTAR":0.00010237000000000001,"MEAN_MOTION_DOT":5.4e-07,"MEAN_MOTION_DDOT":0.0},{"OBJECT_NAME":"ONEWEB-0642","OBJECT_ID":"2023-029L","EPOCH":"2026-04-29T06:32:00.753216","MEAN_MOTION":13.19723701,"ECCENTRICITY":0.0001933,"INCLINATION":87.9149,"RA_OF_ASC_NODE":314.7331,"ARG_OF_PERICENTER":62.4086,"MEAN_ANOMALY":297.7243,"EPHEMERIS_TYPE":0,"CLASSIFICATION_TYPE":"U","NORAD_CAT_ID":55806,"ELEMENT_SET_NO":999,"REV_AT_EPOCH":15245,"BSTAR":-2.7071000000000003e-06,"MEAN_MOTION_DOT":1.2e-07,"MEAN_MOTION_DDOT":0.0},{"OBJECT_NAME":"ONEWEB-0643","OBJECT_ID":"2023-029M","EPOCH":"2026-04-29T04:48:32.088096","MEAN_MOTION":13.1450305,"ECCENTRICITY":0.0001556,"INCLINATION":87.8916,"RA_OF_ASC_NODE":299.5105,"ARG_OF_PERICENTER":68.7248,"MEAN_ANOMALY":291.4048,"EPHEMERIS_TYPE":0,"CLASSIFICATION_TYPE":"U","NORAD_CAT_ID":55807,"ELEMENT_SET_NO":999,"REV_AT_EPOCH":15295,"BSTAR":0.00015017,"MEAN_MOTION_DOT":6.8e-07,"MEAN_MOTION_DDOT":0.0},{"OBJECT_NAME":"ONEWEB-0644","OBJECT_ID":"2023-029N","EPOCH":"2026-04-29T06:25:11.978400","MEAN_MOTION":13.19724671,"ECCENTRICITY":0.000178,"INCLINATION":87.9144,"RA_OF_ASC_NODE":314.7364,"ARG_OF_PERICENTER":76.424,"MEAN_ANOMALY":283.7091,"EPHEMERIS_TYPE":0,"CLASSIFICATION_TYPE":"U","NORAD_CAT_ID":55808,"ELEMENT_SET_NO":999,"REV_AT_EPOCH":15245,"BSTAR":3.9375e-05,"MEAN_MOTION_DOT":2.9e-07,"MEAN_MOTION_DDOT":0.0},{"OBJECT_NAME":"ONEWEB-0645","OBJECT_ID":"2023-029P","EPOCH":"2026-04-29T06:57:03.187008","MEAN_MOTION":13.19725275,"ECCENTRICITY":0.0002161,"INCLINATION":87.915,"RA_OF_ASC_NODE":314.7284,"ARG_OF_PERICENTER":79.9787,"MEAN_ANOMALY":280.159,"EPHEMERIS_TYPE":0,"CLASSIFICATION_TYPE":"U","NORAD_CAT_ID":55809,"ELEMENT_SET_NO":999,"REV_AT_EPOCH":15245,"BSTAR":-9.545100000000001e-06,"MEAN_MOTION_DOT":9e-08,"MEAN_MOTION_DDOT":0.0},{"OBJECT_NAME":"ONEWEB-0646","OBJECT_ID":"2023-029Q","EPOCH":"2026-04-29T00:05:21.232608","MEAN_MOTION":13.19724255,"ECCENTRICITY":0.000175,"INCLINATION":87.915,"RA_OF_ASC_NODE":314.7854,"ARG_OF_PERICENTER":78.6316,"MEAN_ANOMALY":281.5014,"EPHEMERIS_TYPE":0,"CLASSIFICATION_TYPE":"U","NORAD_CAT_ID":55810,"ELEMENT_SET_NO":999,"REV_AT_EPOCH":15240,"BSTAR":6.6009e-05,"MEAN_MOTION_DOT":3.9e-07,"MEAN_MOTION_DDOT":0.0},{"OBJECT_NAME":"ONEWEB-0648","OBJECT_ID":"2023-029R","EPOCH":"2026-04-29T05:52:29.030880","MEAN_MOTION":13.14502773,"ECCENTRICITY":0.0002337,"INCLINATION":87.8924,"RA_OF_ASC_NODE":299.4705,"ARG_OF_PERICENTER":70.9349,"MEAN_ANOMALY":289.2034,"EPHEMERIS_TYPE":0,"CLASSIFICATION_TYPE":"U","NORAD_CAT_ID":55811,"ELEMENT_SET_NO":999,"REV_AT_EPOCH":15296,"BSTAR":0.00036546,"MEAN_MOTION_DOT":1.48e-06,"MEAN_MOTION_DDOT":0.0},{"OBJECT_NAME":"ONEWEB-0649","OBJECT_ID":"2023-029S","EPOCH":"2026-04-29T06:09:17.130528","MEAN_MOTION":13.19724841,"ECCENTRICITY":0.0001984,"INCLINATION":87.9149,"RA_OF_ASC_NODE":314.7325,"ARG_OF_PERICENTER":81.4715,"MEAN_ANOMALY":278.6643,"EPHEMERIS_TYPE":0,"CLASSIFICATION_TYPE":"U","NORAD_CAT_ID":55812,"ELEMENT_SET_NO":999,"REV_AT_EPOCH":15247,"BSTAR":0.00024944,"MEAN_MOTION_DOT":1.13e-06,"MEAN_MOTION_DDOT":0.0},{"OBJECT_NAME":"ONEWEB-0650","OBJECT_ID":"2023-029T","EPOCH":"2026-04-29T06:02:27.584160","MEAN_MOTION":13.19724818,"ECCENTRICITY":0.0001843,"INCLINATION":87.9148,"RA_OF_ASC_NODE":314.7361,"ARG_OF_PERICENTER":73.5848,"MEAN_ANOMALY":286.5488,"EPHEMERIS_TYPE":0,"CLASSIFICATION_TYPE":"U","NORAD_CAT_ID":55813,"ELEMENT_SET_NO":999,"REV_AT_EPOCH":15244,"BSTAR":0.00011936,"MEAN_MOTION_DOT":6.1e-07,"MEAN_MOTION_DDOT":0.0},{"OBJECT_NAME":"ONEWEB-0652","OBJECT_ID":"2023-029U","EPOCH":"2026-04-29T05:25:04.265184","MEAN_MOTION":13.14502414,"ECCENTRICITY":0.0001701,"INCLINATION":87.8914,"RA_OF_ASC_NODE":299.4848,"ARG_OF_PERICENTER":97.1658,"MEAN_ANOMALY":262.9666,"EPHEMERIS_TYPE":0,"CLASSIFICATION_TYPE":"U","NORAD_CAT_ID":55814,"ELEMENT_SET_NO":999,"REV_AT_EPOCH":15293,"BSTAR":-0.00045248,"MEAN_MOTION_DOT":-1.55e-06,"MEAN_MOTION_DDOT":0.0},{"OBJECT_NAME":"ONEWEB-0653","OBJECT_ID":"2023-029V","EPOCH":"2026-04-29T05:02:14.127072","MEAN_MOTION":13.14502767,"ECCENTRICITY":0.000187,"INCLINATION":87.8925,"RA_OF_ASC_NODE":299.4833,"ARG_OF_PERICENTER":95.4894,"MEAN_ANOMALY":264.6449,"EPHEMERIS_TYPE":0,"CLASSIFICATION_TYPE":"U","NORAD_CAT_ID":55815,"ELEMENT_SET_NO":999,"REV_AT_EPOCH":15296,"BSTAR":-0.00040882,"MEAN_MOTION_DOT":-1.39e-06,"MEAN_MOTION_DDOT":0.0},{"OBJECT_NAME":"ONEWEB-0654","OBJECT_ID":"2023-029W","EPOCH":"2026-04-29T04:55:23.173248","MEAN_MOTION":13.1450266,"ECCENTRICITY":0.0001752,"INCLINATION":87.8925,"RA_OF_ASC_NODE":299.4805,"ARG_OF_PERICENTER":103.1628,"MEAN_ANOMALY":256.9697,"EPHEMERIS_TYPE":0,"CLASSIFICATION_TYPE":"U","NORAD_CAT_ID":55816,"ELEMENT_SET_NO":999,"REV_AT_EPOCH":15298,"BSTAR":-9.758000000000001e-05,"MEAN_MOTION_DOT":-2.3e-07,"MEAN_MOTION_DDOT":0.0},{"OBJECT_NAME":"ONEWEB-0656","OBJECT_ID":"2023-029X","EPOCH":"2026-04-29T04:32:46.634496","MEAN_MOTION":13.2077307,"ECCENTRICITY":0.0001865,"INCLINATION":87.9144,"RA_OF_ASC_NODE":284.2055,"ARG_OF_PERICENTER":109.4303,"MEAN_ANOMALY":250.7032,"EPHEMERIS_TYPE":0,"CLASSIFICATION_TYPE":"U","NORAD_CAT_ID":55817,"ELEMENT_SET_NO":999,"REV_AT_EPOCH":15468,"BSTAR":0.00015614,"MEAN_MOTION_DOT":7.6e-07,"MEAN_MOTION_DDOT":0.0},{"OBJECT_NAME":"ONEWEB-0657","OBJECT_ID":"2023-029Y","EPOCH":"2026-04-29T05:55:38.298720","MEAN_MOTION":13.19725283,"ECCENTRICITY":0.0001183,"INCLINATION":87.9149,"RA_OF_ASC_NODE":314.7357,"ARG_OF_PERICENTER":102.1855,"MEAN_ANOMALY":257.9411,"EPHEMERIS_TYPE":0,"CLASSIFICATION_TYPE":"U","NORAD_CAT_ID":55818,"ELEMENT_SET_NO":999,"REV_AT_EPOCH":15245,"BSTAR":7.0794e-05,"MEAN_MOTION_DOT":4.1e-07,"MEAN_MOTION_DDOT":0.0},{"OBJECT_NAME":"ONEWEB-0658","OBJECT_ID":"2023-029Z","EPOCH":"2026-04-29T05:48:48.890592","MEAN_MOTION":13.19724566,"ECCENTRICITY":0.0001791,"INCLINATION":87.9159,"RA_OF_ASC_NODE":314.7081,"ARG_OF_PERICENTER":74.3825,"MEAN_ANOMALY":285.7505,"EPHEMERIS_TYPE":0,"CLASSIFICATION_TYPE":"U","NORAD_CAT_ID":55819,"ELEMENT_SET_NO":999,"REV_AT_EPOCH":15246,"BSTAR":5.8329000000000003e-05,"MEAN_MOTION_DOT":3.6e-07,"MEAN_MOTION_DDOT":0.0}]